NORAD_CAT_ID,OBJECT_NAME,OBJECT_TYPE,EPOCH,MEAN_MOTION,ECCENTRICITY,INCLINATION,RA_OF_ASC_NODE,ARG_OF_PERICENTER,MEAN_ANOMALY,BSTAR,MEAN_MOTION_DOT,MEAN_MOTION_DDOT,TLE_LINE0,TLE_LINE1,TLE_LINE2,SEMIMAJOR_AXIS,PERIOD,APOGEE,PERIGEE,DECAYED
53894.0,STARLINK-5043,PAYLOAD,2023-09-20 16:32:25,15.08831467,0.0001267,53.2175,48.899,97.697,262.4166,-8.6625e-05,-1.666e-05,0.0,0 STARLINK-5043,1 53894U 22119J   23263.68917946 -.00001666  00000-0 -86625-4 0  9992,2 53894  53.2175  48.8990 0001267  97.6970 262.4166 15.08831467 55242,6917.906,95.438,540.648,538.895,0.0
53894.0,STARLINK-5043,PAYLOAD,2023-09-21 13:12:25,15.08839897,0.0001348,53.2178,45.0334,103.3585,256.7557,8.9114e-05,1.131e-05,0.0,0 STARLINK-5043,1 53894U 22119J   23264.55029800  .00001131  00000-0  89114-4 0  9993,2 53894  53.2178  45.0334 0001348 103.3585 256.7557 15.08839897 55798,6917.881,95.438,540.678,538.813,0.0
53894.0,STARLINK-5043,PAYLOAD,2023-09-21 14:47:48,15.08843143,0.0001311,53.2181,44.7363,105.0109,255.1029,0.00010422,1.371e-05,0.0,0 STARLINK-5043,1 53894U 22119J   23264.61653513  .00001371  00000-0  10422-3 0  9995,2 53894  53.2181  44.7363 0001311 105.0109 255.1029 15.08843143 55382,6917.871,95.437,540.643,538.829,0.0
53894.0,STARLINK-5043,PAYLOAD,2023-09-21 19:33:57,15.0884982,0.0001272,53.2178,43.8434,100.7711,259.3424,0.00017858,2.556e-05,0.0,0 STARLINK-5043,1 53894U 22119J   23264.81525280  .00002556  00000-0  17858-3 0  9992,2 53894  53.2178  43.8434 0001272 100.7711 259.3424 15.08849820 55837,6917.85,95.437,540.595,538.835,0.0
53894.0,STARLINK-5043,PAYLOAD,2023-09-22 08:17:03,15.08839467,0.0001183,53.2179,41.4654,117.4052,242.7061,0.00021045,3.063e-05,0.0,0 STARLINK-5043,1 53894U 22119J   23265.34518021  .00003063  00000-0  21045-3 0  9993,2 53894  53.2179  41.4654 0001183 117.4052 242.7061 15.08839467 55491,6917.882,95.438,540.565,538.929,0.0
53894.0,STARLINK-5043,PAYLOAD,2023-09-22 13:03:12,15.08842502,0.0001624,53.218,40.5722,118.4231,241.6925,0.0001812,2.597e-05,0.0,0 STARLINK-5043,1 53894U 22119J   23265.54389664  .00002597  00000-0  18120-3 0  9995,2 53894  53.2180  40.5722 0001624 118.4231 241.6925 15.08842502 55940,6917.873,95.437,540.861,538.614,0.0
53894.0,STARLINK-5043,PAYLOAD,2023-09-22 16:13:58,15.08844762,0.0001138,53.2174,39.9803,87.9771,272.1351,0.00024118,3.553e-05,0.0,0 STARLINK-5043,1 53894U 22119J   23265.67637719  .00003553  00000-0  24118-3 0  9993,2 53894  53.2174  39.9803 0001138  87.9771 272.1351 15.08844762 55968,6917.866,95.437,540.518,538.944,0.0
53894.0,STARLINK-5043,PAYLOAD,2023-09-23 12:53:59,15.08842858,0.0001149,53.2175,36.1167,81.7111,278.4012,-4.8775e-06,-3.65e-06,0.0,0 STARLINK-5043,1 53894U 22119J   23266.53749619 -.00000365  00000-0 -48775-5 0  9999,2 53894  53.2175  36.1167 0001149  81.7111 278.4012 15.08842858 56095,6917.872,95.437,540.532,538.942,0.0
53894.0,STARLINK-5043,PAYLOAD,2023-09-23 17:40:08,15.08850766,0.0001417,53.219,35.2232,80.2919,279.8233,0.00012219,1.658e-05,0.0,0 STARLINK-5043,1 53894U 22119J   23266.73621198  .00001658  00000-0  12219-3 0  9998,2 53894  53.2190  35.2232 0001417  80.2919 279.8233 15.08850766 55707,6917.847,95.437,540.693,538.732,0.0
53894.0,STARLINK-5043,PAYLOAD,2023-09-24 07:58:37,15.08838673,0.0001447,53.2176,32.545,111.1743,248.9404,2.1578e-05,5.5e-07,0.0,0 STARLINK-5043,1 53894U 22119J   23267.33237648  .00000055  00000-0  21578-4 0  9997,2 53894  53.2176  32.5450 0001447 111.1743 248.9404 15.08838673 55794,6917.884,95.438,540.75,538.748,0.0
53894.0,STARLINK-5043,PAYLOAD,2023-09-24 14:20:09,15.08844366,0.0001277,53.2169,31.3545,100.9422,259.1713,6.3067e-05,7.16e-06,0.0,0 STARLINK-5043,1 53894U 22119J   23267.59733416  .00000716  00000-0  63067-4 0  9992,2 53894  53.2169  31.3545 0001277 100.9422 259.1713 15.08844366 56254,6917.867,95.437,540.615,538.849,0.0
53894.0,STARLINK-5043,PAYLOAD,2023-09-24 15:55:32,15.08847046,0.0001278,53.2171,31.0591,78.7721,281.3415,0.00011322,1.515e-05,0.0,0 STARLINK-5043,1 53894U 22119J   23267.66357404  .00001515  00000-0  11322-3 0  9993,2 53894  53.2171  31.0591 0001278  78.7721 281.3415 15.08847046 56265,6917.859,95.437,540.608,538.84,0.0
53894.0,STARLINK-5043,PAYLOAD,2023-09-25 07:49:24,15.08843081,0.0001369,53.217,28.0867,77.6625,282.452,0.0001342,1.849e-05,0.0,0 STARLINK-5043,1 53894U 22119J   23268.32597686  .00001849  00000-0  13420-3 0  9996,2 53894  53.2170  28.0867 0001369  77.6625 282.4520 15.08843081 55946,6917.871,95.437,540.683,538.789,0.0
53894.0,STARLINK-5043,PAYLOAD,2023-09-25 14:10:56,15.08843779,0.0001257,53.2164,26.8973,94.2604,265.8532,0.00012517,1.705e-05,0.0,0 STARLINK-5043,1 53894U 22119J   23268.59093481  .00001705  00000-0  12517-3 0  9996,2 53894  53.2164  26.8973 0001257  94.2604 265.8532 15.08843779 56405,6917.869,95.437,540.603,538.864,0.0
53894.0,STARLINK-5043,PAYLOAD,2023-09-25 15:46:19,15.08856201,0.0001359,53.2179,26.5982,99.743,260.3716,0.00022376,3.277e-05,0.0,0 STARLINK-5043,1 53894U 22119J   23268.65716826  .00003277  00000-0  22376-3 0  9998,2 53894  53.2179  26.5982 0001359  99.7430 260.3716 15.08856201 55999,6917.831,95.437,540.636,538.756,0.0
53894.0,STARLINK-5043,PAYLOAD,2023-09-26 14:01:43,15.08847921,0.0001679,53.2175,22.4366,74.109,286.0087,0.00020239,2.935e-05,0.0,0 STARLINK-5043,1 53894U 22119J   23269.58453376  .00002935  00000-0  20239-3 0  9995,2 53894  53.2175  22.4366 0001679  74.1090 286.0087 15.08847921 56558,6917.856,95.437,540.883,538.56,0.0
53894.0,STARLINK-5043,PAYLOAD,2023-09-26 17:12:29,15.08851774,0.0001752,53.2173,21.8393,79.1521,280.9668,0.00025699,3.806e-05,0.0,0 STARLINK-5043,1 53894U 22119J   23269.71701131  .00003806  00000-0  25699-3 0  9998,2 53894  53.2173  21.8393 0001752  79.1521 280.9668 15.08851774 56150,6917.844,95.437,540.921,538.497,0.0
53894.0,STARLINK-5043,PAYLOAD,2023-09-27 07:30:58,15.08829631,0.0001292,53.2182,19.1638,94.5763,265.5376,-0.00023749,-4.064e-05,0.0,0 STARLINK-5043,1 53894U 22119J   23270.31317864 -.00004064  00000-0 -23749-3 0  9995,2 53894  53.2182  19.1638 0001292  94.5763 265.5376 15.08829631 56242,6917.912,95.438,540.671,538.883,0.0
53894.0,STARLINK-5043,PAYLOAD,2023-09-27 12:17:08,15.08830584,0.0001405,53.2184,18.2718,93.404,266.7113,-0.00015423,-2.741e-05,0.0,0 STARLINK-5043,1 53894U 22119J   23270.51190005 -.00002741  00000-0 -15423-3 0  9993,2 53894  53.2184  18.2718 0001405  93.4040 266.7113 15.08830584 56695,6917.909,95.438,540.746,538.802,0.0
53894.0,STARLINK-5043,PAYLOAD,2023-09-28 12:07:55,15.08843889,0.0001354,53.2179,13.8124,85.9538,274.1609,0.00025357,3.75e-05,0.0,0 STARLINK-5043,1 53894U 22119J   23271.50550382  .00003750  00000-0  25357-3 0  9997,2 53894  53.2179  13.8124 0001354  85.9538 274.1609 15.08843889 56428,6917.869,95.437,540.67,538.797,0.0
53894.0,STARLINK-5043,PAYLOAD,2023-09-29 10:23:20,15.08836762,0.0001393,53.2184,9.65,78.8362,281.2786,0.00023055,3.383e-05,0.0,0 STARLINK-5043,1 53894U 22119J   23272.43287118  .00003383  00000-0  23055-3 0  9999,2 53894  53.2184   9.6500 0001393  78.8362 281.2786 15.08836762 56566,6917.89,95.438,540.719,538.792,0.0
53894.0,STARLINK-5043,PAYLOAD,2023-09-29 13:34:05,15.08843102,0.0001476,53.2179,9.0548,86.1678,273.9482,0.00029037,4.337e-05,0.0,0 STARLINK-5043,1 53894U 22119J   23272.56534687  .00004337  00000-0  29037-3 0  9995,2 53894  53.2179   9.0548 0001476  86.1678 273.9482 15.08843102 57007,6917.871,95.437,540.757,538.715,0.0
53894.0,STARLINK-5043,PAYLOAD,2023-09-30 22:57:11,15.08848224,0.0001289,53.2174,2.8126,90.7707,269.3433,0.00010871,1.443e-05,0.0,0 STARLINK-5043,1 53894U 22119J   23273.95637790  .00001443  00000-0  10871-3 0  9999,2 53894  53.2174   2.8126 0001289  90.7707 269.3433 15.08848224 56791,6917.855,95.437,540.612,538.829,0.0
53894.0,STARLINK-5043,PAYLOAD,2023-10-01 13:15:39,15.08851476,0.0001679,53.2189,0.1339,95.108,265.0104,0.00013824,1.913e-05,0.0,0 STARLINK-5043,1 53894U 22119J   23274.55253735  .00001913  00000-0  13824-3 0  9992,2 53894  53.2189   0.1339 0001679  95.1080 265.0104 15.08851476 57309,6917.845,95.437,540.872,538.549,0.0
53894.0,STARLINK-5043,PAYLOAD,2023-10-01 14:51:02,15.08853743,0.0001733,53.2184,359.8364,87.6472,272.4719,0.00016805,2.388e-05,0.0,0 STARLINK-5043,1 53894U 22119J   23274.61877626  .00002388  00000-0  16805-3 0  9999,2 53894  53.2184 359.8364 0001733  87.6472 272.4719 15.08853743 57312,6917.838,95.437,540.902,538.505,0.0
53894.0,STARLINK-5043,PAYLOAD,2023-10-01 22:47:58,15.08845482,0.000167,53.2189,358.3503,80.2708,279.8473,2.8497e-05,1.66e-06,0.0,0 STARLINK-5043,1 53894U 22119J   23274.94997774  .00000166  00000-0  28497-4 0  9995,2 53894  53.2189 358.3503 0001670  80.2708 279.8473 15.08845482 56944,6917.864,95.437,540.884,538.573,0.0
53894.0,STARLINK-5043,PAYLOAD,2023-10-02 09:55:41,15.08821615,0.0001414,53.2166,356.2711,84.4639,275.6514,-0.0002995,-5.049e-05,0.0,0 STARLINK-5043,1 53894U 22119J   23275.41367339 -.00005049  00000-0 -29950-3 0  9997,2 53894  53.2166 356.2711 0001414  84.4639 275.6514 15.08821615 57013,6917.937,95.439,540.78,538.823,0.0
53894.0,STARLINK-5043,PAYLOAD,2023-10-02 13:06:28,15.08818192,0.0001659,53.2188,355.6758,82.0563,278.0618,9.3908e-07,-2.73e-06,0.0,0 STARLINK-5043,1 53894U 22119J   23275.54615751 -.00000273  00000-0  93908-6 0  9995,2 53894  53.2188 355.6758 0001659  82.0563 278.0618 15.08818192 57458,6917.947,95.439,540.96,538.664,0.0
53894.0,STARLINK-5043,PAYLOAD,2023-10-03 05:00:18,15.08838933,0.000177,53.2188,352.7016,81.4863,278.6329,0.00013673,1.889e-05,0.0,0 STARLINK-5043,1 53894U 22119J   23276.20855150  .00001889  00000-0  13673-3 0  9999,2 53894  53.2188 352.7016 0001770  81.4863 278.6329 15.08838933 57138,6917.884,95.438,540.973,538.524,0.0
53894.0,STARLINK-5043,PAYLOAD,2023-10-03 12:57:14,15.08852656,0.0001603,53.2166,351.2151,76.5594,283.5576,0.0010061,0.00015766,0.0,0 STARLINK-5043,1 53894U 22119J   23276.53975146  .00015766  00000-0  10061-2 0  9999,2 53894  53.2166 351.2151 0001603  76.5594 283.5576 15.08852656 57608,6917.842,95.437,540.816,538.598,0.0
